[
  {
    "COMMENT": "GENERATED VIA SPACETRACK.ORG API",
    "ORIGINATOR": "18 SPCS",
    "NORAD_CAT_ID": "27421",
    "OBJECT_NAME": "SPOT 5",
    "OBJECT_TYPE": "PAYLOAD",
    "CLASSIFICATION_TYPE": "U",
    "INTLDES": "02021A",
    "EPOCH": "2023-08-21 02:56:00",
    "EPOCH_MICROSECONDS": "72384",
    "MEAN_MOTION": "14.52722909",
    "ECCENTRICITY": "0.0132737",
    "INCLINATION": "98.1347",
    "RA_OF_ASC_NODE": "294.2152",
    "ARG_OF_PERICENTER": "232.9629",
    "MEAN_ANOMALY": "125.9366",
    "EPHEMERIS_TYPE": "0",
    "ELEMENT_SET_NO": "999",
    "REV_AT_EPOCH": "11306",
    "BSTAR": "0.00012251",
    "MEAN_MOTION_DOT": "0.00000513",
    "MEAN_MOTION_DDOT": "0",
    "FILE": "3985853",
    "TLE_LINE0": "0 SPOT 5",
    "TLE_LINE1": "1 27421U 02021A   23233.12222306  .00000513  00000-0  12251-3 0  9995",
    "TLE_LINE2": "2 27421  98.1347 294.2152 0132737 232.9629 125.9366 14.52722909113065",
    "OBJECT_ID": "2002-021A",
    "OBJECT_NUMBER": "27421",
    "SEMIMAJOR_AXIS": "7094.906",
    "PERIOD": "99.124",
    "APOGEE": "810.947",
    "PERIGEE": "622.595",
    "DECAYED": "0"
  },
  {
    "COMMENT": "GENERATED VIA SPACETRACK.ORG API",
    "ORIGINATOR": "18 SPCS",
    "NORAD_CAT_ID": "27421",
    "OBJECT_NAME": "SPOT 5",
    "OBJECT_TYPE": "PAYLOAD",
    "CLASSIFICATION_TYPE": "U",
    "INTLDES": "02021A",
    "EPOCH": "2023-08-21 04:35:11",
    "EPOCH_MICROSECONDS": "93568",
    "MEAN_MOTION": "14.52723113",
    "ECCENTRICITY": "0.0132748",
    "INCLINATION": "98.1347",
    "RA_OF_ASC_NODE": "294.282",
    "ARG_OF_PERICENTER": "232.7498",
    "MEAN_ANOMALY": "126.1531",
    "EPHEMERIS_TYPE": "0",
    "ELEMENT_SET_NO": "999",
    "REV_AT_EPOCH": "11307",
    "BSTAR": "0.00012754",
    "MEAN_MOTION_DOT": "0.00000536",
    "MEAN_MOTION_DDOT": "0",
    "FILE": "3986154",
    "TLE_LINE0": "0 SPOT 5",
    "TLE_LINE1": "1 27421U 02021A   23233.19110062  .00000536  00000-0  12754-3 0  9990",
    "TLE_LINE2": "2 27421  98.1347 294.2820 0132748 232.7498 126.1531 14.52723113113077",
    "OBJECT_ID": "2002-021A",
    "OBJECT_NUMBER": "27421",
    "SEMIMAJOR_AXIS": "7094.905",
    "PERIOD": "99.124",
    "APOGEE": "810.954",
    "PERIGEE": "622.587",
    "DECAYED": "0"
  },
  {
    "COMMENT": "GENERATED VIA SPACETRACK.ORG API",
    "ORIGINATOR": "18 SPCS",
    "NORAD_CAT_ID": "27421",
    "OBJECT_NAME": "SPOT 5",
    "OBJECT_TYPE": "PAYLOAD",
    "CLASSIFICATION_TYPE": "U",
    "INTLDES": "02021A",
    "EPOCH": "2023-08-21 17:48:39",
    "EPOCH_MICROSECONDS": "264768",
    "MEAN_MOTION": "14.52723777",
    "ECCENTRICITY": "0.0132771",
    "INCLINATION": "98.1346",
    "RA_OF_ASC_NODE": "294.8167",
    "ARG_OF_PERICENTER": "231.031",
    "MEAN_ANOMALY": "127.8997",
    "EPHEMERIS_TYPE": "0",
    "ELEMENT_SET_NO": "999",
    "REV_AT_EPOCH": "11315",
    "BSTAR": "0.00012824",
    "MEAN_MOTION_DOT": "0.00000539",
    "MEAN_MOTION_DDOT": "0",
    "FILE": "3986453",
    "TLE_LINE0": "0 SPOT 5",
    "TLE_LINE1": "1 27421U 02021A   23233.74212112  .00000539  00000-0  12824-3 0  9991",
    "TLE_LINE2": "2 27421  98.1346 294.8167 0132771 231.0310 127.8997 14.52723777113156",
    "OBJECT_ID": "2002-021A",
    "OBJECT_NUMBER": "27421",
    "SEMIMAJOR_AXIS": "7094.903",
    "PERIOD": "99.124",
    "APOGEE": "810.968",
    "PERIGEE": "622.569",
    "DECAYED": "0"
  },
  {
    "COMMENT": "GENERATED VIA SPACETRACK.ORG API",
    "ORIGINATOR": "18 SPCS",
    "NORAD_CAT_ID": "27421",
    "OBJECT_NAME": "SPOT 5",
    "OBJECT_TYPE": "PAYLOAD",
    "CLASSIFICATION_TYPE": "U",
    "INTLDES": "02021A",
    "EPOCH": "2023-08-22 03:43:45",
    "EPOCH_MICROSECONDS": "391872",
    "MEAN_MOTION": "14.52724358",
    "ECCENTRICITY": "0.0132812",
    "INCLINATION": "98.1345",
    "RA_OF_ASC_NODE": "295.2176",
    "ARG_OF_PERICENTER": "229.7472",
    "MEAN_ANOMALY": "129.2049",
    "EPHEMERIS_TYPE": "0",
    "ELEMENT_SET_NO": "999",
    "REV_AT_EPOCH": "11321",
    "BSTAR": "0.00013282",
    "MEAN_MOTION_DOT": "0.0000056",
    "MEAN_MOTION_DDOT": "0",
    "FILE": "3986718",
    "TLE_LINE0": "0 SPOT 5",
    "TLE_LINE1": "1 27421U 02021A   23234.15538648  .00000560  00000-0  13282-3 0  9995",
    "TLE_LINE2": "2 27421  98.1345 295.2176 0132812 229.7472 129.2049 14.52724358113216",
    "OBJECT_ID": "2002-021A",
    "OBJECT_NUMBER": "27421",
    "SEMIMAJOR_AXIS": "7094.901",
    "PERIOD": "99.124",
    "APOGEE": "810.995",
    "PERIGEE": "622.538",
    "DECAYED": "0"
  },
  {
    "COMMENT": "GENERATED VIA SPACETRACK.ORG API",
    "ORIGINATOR": "18 SPCS",
    "NORAD_CAT_ID": "27421",
    "OBJECT_NAME": "SPOT 5",
    "OBJECT_TYPE": "PAYLOAD",
    "CLASSIFICATION_TYPE": "U",
    "INTLDES": "02021A",
    "EPOCH": "2023-08-23 02:52:19",
    "EPOCH_MICROSECONDS": "653888",
    "MEAN_MOTION": "14.5272571",
    "ECCENTRICITY": "0.0132868",
    "INCLINATION": "98.1345",
    "RA_OF_ASC_NODE": "296.1532",
    "ARG_OF_PERICENTER": "226.7467",
    "MEAN_ANOMALY": "132.2579",
    "EPHEMERIS_TYPE": "0",
    "ELEMENT_SET_NO": "999",
    "REV_AT_EPOCH": "11335",
    "BSTAR": "0.00013708",
    "MEAN_MOTION_DOT": "0.0000058",
    "MEAN_MOTION_DDOT": "0",
    "FILE": "3987474",
    "TLE_LINE0": "0 SPOT 5",
    "TLE_LINE1": "1 27421U 02021A   23235.11967192  .00000580  00000-0  13708-3 0  9997",
    "TLE_LINE2": "2 27421  98.1345 296.1532 0132868 226.7467 132.2579 14.52725710113354",
    "OBJECT_ID": "2002-021A",
    "OBJECT_NUMBER": "27421",
    "SEMIMAJOR_AXIS": "7094.897",
    "PERIOD": "99.124",
    "APOGEE": "811.030",
    "PERIGEE": "622.493",
    "DECAYED": "0"
  },
  {
    "COMMENT": "GENERATED VIA SPACETRACK.ORG API",
    "ORIGINATOR": "18 SPCS",
    "NORAD_CAT_ID": "27421",
    "OBJECT_NAME": "SPOT 5",
    "OBJECT_TYPE": "PAYLOAD",
    "CLASSIFICATION_TYPE": "U",
    "INTLDES": "02021A",
    "EPOCH": "2023-08-23 04:31:30",
    "EPOCH_MICROSECONDS": "672480",
    "MEAN_MOTION": "14.52725768",
    "ECCENTRICITY": "0.0132878",
    "INCLINATION": "98.1345",
    "RA_OF_ASC_NODE": "296.2201",
    "ARG_OF_PERICENTER": "226.5337",
    "MEAN_ANOMALY": "132.4748",
    "EPHEMERIS_TYPE": "0",
    "ELEMENT_SET_NO": "999",
    "REV_AT_EPOCH": "11336",
    "BSTAR": "0.00013592",
    "MEAN_MOTION_DOT": "0.00000575",
    "MEAN_MOTION_DDOT": "0",
    "FILE": "3987788",
    "TLE_LINE0": "0 SPOT 5",
    "TLE_LINE1": "1 27421U 02021A   23235.18854945  .00000575  00000-0  13592-3 0  9990",
    "TLE_LINE2": "2 27421  98.1345 296.2201 0132878 226.5337 132.4748 14.52725768113367",
    "OBJECT_ID": "2002-021A",
    "OBJECT_NUMBER": "27421",
    "SEMIMAJOR_AXIS": "7094.897",
    "PERIOD": "99.124",
    "APOGEE": "811.037",
    "PERIGEE": "622.486",
    "DECAYED": "0"
  },
  {
    "COMMENT": "GENERATED VIA SPACETRACK.ORG API",
    "ORIGINATOR": "18 SPCS",
    "NORAD_CAT_ID": "27421",
    "OBJECT_NAME": "SPOT 5",
    "OBJECT_TYPE": "PAYLOAD",
    "CLASSIFICATION_TYPE": "U",
    "INTLDES": "02021A",
    "EPOCH": "2023-08-24 18:32:44",
    "EPOCH_MICROSECONDS": "66400",
    "MEAN_MOTION": "14.52728048",
    "ECCENTRICITY": "0.0132965",
    "INCLINATION": "98.1343",
    "RA_OF_ASC_NODE": "297.7571",
    "ARG_OF_PERICENTER": "221.6081",
    "MEAN_ANOMALY": "137.4938",
    "EPHEMERIS_TYPE": "0",
    "ELEMENT_SET_NO": "999",
    "REV_AT_EPOCH": "11356",
    "BSTAR": "0.00014541",
    "MEAN_MOTION_DOT": "0.00000619",
    "MEAN_MOTION_DDOT": "0",
    "FILE": "3988199",
    "TLE_LINE0": "0 SPOT 5",
    "TLE_LINE1": "1 27421U 02021A   23236.77273225  .00000619  00000-0  14541-3 0  9996",
    "TLE_LINE2": "2 27421  98.1343 297.7571 0132965 221.6081 137.4938 14.52728048113562",
    "OBJECT_ID": "2002-021A",
    "OBJECT_NUMBER": "27421",
    "SEMIMAJOR_AXIS": "7094.889",
    "PERIOD": "99.124",
    "APOGEE": "811.092",
    "PERIGEE": "622.417",
    "DECAYED": "0"
  },
  {
    "COMMENT": "GENERATED VIA SPACETRACK.ORG API",
    "ORIGINATOR": "18 SPCS",
    "NORAD_CAT_ID": "27421",
    "OBJECT_NAME": "SPOT 5",
    "OBJECT_TYPE": "PAYLOAD",
    "CLASSIFICATION_TYPE": "U",
    "INTLDES": "02021A",
    "EPOCH": "2023-08-25 02:48:39",
    "EPOCH_MICROSECONDS": "154176",
    "MEAN_MOTION": "14.52728386",
    "ECCENTRICITY": "0.0133002",
    "INCLINATION": "98.1343",
    "RA_OF_ASC_NODE": "298.0913",
    "ARG_OF_PERICENTER": "220.5427",
    "MEAN_ANOMALY": "138.5804",
    "EPHEMERIS_TYPE": "0",
    "ELEMENT_SET_NO": "999",
    "REV_AT_EPOCH": "11364",
    "BSTAR": "0.0001426",
    "MEAN_MOTION_DOT": "0.00000606",
    "MEAN_MOTION_DDOT": "0",
    "FILE": "3988345",
    "TLE_LINE0": "0 SPOT 5",
    "TLE_LINE1": "1 27421U 02021A   23237.11711984  .00000606  00000-0  14260-3 0  9998",
    "TLE_LINE2": "2 27421  98.1343 298.0913 0133002 220.5427 138.5804 14.52728386113649",
    "OBJECT_ID": "2002-021A",
    "OBJECT_NUMBER": "27421",
    "SEMIMAJOR_AXIS": "7094.888",
    "PERIOD": "99.124",
    "APOGEE": "811.117",
    "PERIGEE": "622.390",
    "DECAYED": "0"
  },
  {
    "COMMENT": "GENERATED VIA SPACETRACK.ORG API",
    "ORIGINATOR": "18 SPCS",
    "NORAD_CAT_ID": "27421",
    "OBJECT_NAME": "SPOT 5",
    "OBJECT_TYPE": "PAYLOAD",
    "CLASSIFICATION_TYPE": "U",
    "INTLDES": "02021A",
    "EPOCH": "2023-08-25 04:27:50",
    "EPOCH_MICROSECONDS": "172768",
    "MEAN_MOTION": "14.52728361",
    "ECCENTRICITY": "0.0133007",
    "INCLINATION": "98.1343",
    "RA_OF_ASC_NODE": "298.1581",
    "ARG_OF_PERICENTER": "220.3284",
    "MEAN_ANOMALY": "138.799",
    "EPHEMERIS_TYPE": "0",
    "ELEMENT_SET_NO": "999",
    "REV_AT_EPOCH": "11365",
    "BSTAR": "0.00013822",
    "MEAN_MOTION_DOT": "0.00000586",
    "MEAN_MOTION_DDOT": "0",
    "FILE": "3988612",
    "TLE_LINE0": "0 SPOT 5",
    "TLE_LINE1": "1 27421U 02021A   23237.18599737  .00000586  00000-0  13822-3 0  9995",
    "TLE_LINE2": "2 27421  98.1343 298.1581 0133007 220.3284 138.7990 14.52728361113657",
    "OBJECT_ID": "2002-021A",
    "OBJECT_NUMBER": "27421",
    "SEMIMAJOR_AXIS": "7094.888",
    "PERIOD": "99.124",
    "APOGEE": "811.120",
    "PERIGEE": "622.386",
    "DECAYED": "0"
  }
]